{"type": "FeatureCollection", "features": [ {"type": "Feature", "properties": {"norad_id": 31536, "name": "FENGYUN 1C DEB", "group": "fengyun-1c-debris", "lat": 21.624531601732524, "lon": 92.00053295680884, "alt_km": 598.5674565974186, "timestamp": "2025-12-27T12:55:14.788569+00:00", "meta": {"OBJECT_NAME": "FENGYUN 1C DEB", "OBJECT_ID": "1999-025BYB", "EPOCH": "2025-12-26T16:24:45.263808", "MEAN_MOTION": 14.54493151, "ECCENTRICITY": 0.02946199, "INCLINATION": 98.2359, "RA_OF_ASC_NODE": 267.8663, "ARG_OF_PERICENTER": 101.728, "MEAN_ANOMALY": 261.7128, "EPHEMERIS_TYPE": 0, "CLASSIFICATION_TYPE": "U", "NORAD_CAT_ID": 31536, "ELEMENT_SET_NO": 999, "REV_AT_EPOCH": 96460, "BSTAR": 0.00089245531, "MEAN_MOTION_DOT": 6.774e-05, "MEAN_MOTION_DDOT": 0}, "tle": {"line1": "1 31536U 99025BYB 25360.68385722  .00006774  00000+0  89246-3 0  9995", "line2": "2 31536  98.2359 267.8663 0294619 101.7280 261.7128 14.54493151964603"}}, "geometry": {"type": "Point", "coordinates": [92.00053295680884, 21.624531601732524]}}, {"type": "Feature", "properties": {"norad_id": 31537, "name": "FENGYUN 1C DEB", "group": "fengyun-1c-debris", "lat": 23.19939594322743, "lon": -20.49548283460099, "alt_km": 964.418579177167, "timestamp": "2025-12-27T12:55:14.788579+00:00", "meta": {"OBJECT_NAME": "FENGYUN 1C DEB", "OBJECT_ID": "1999-025BYC", "EPOCH": "2025-12-26T15:52:08.363424", "MEAN_MOTION": 14.20567833, "ECCENTRICITY": 0.03483815, "INCLINATION": 99.2939, "RA_OF_ASC_NODE": 154.5564, "ARG_OF_PERICENTER": 284.8461, "MEAN_ANOMALY": 71.4375, "EPHEMERIS_TYPE": 0, "CLASSIFICATION_TYPE": "U", "NORAD_CAT_ID": 31537, "ELEMENT_SET_NO": 999, "REV_AT_EPOCH": 93479, "BSTAR": 0.003048924, "MEAN_MOTION_DOT": 0.0001209, "MEAN_MOTION_DDOT": 0}, "tle": {"line1": "1 31537U 99025BYC 25360.66120791  .00012090  00000+0  30489-2 0  9999", "line2": "2 31537  99.2939 154.5564 0348381 284.8461  71.4375 14.20567833934790"}}, "geometry": {"type": "Point", "coordinates": [-20.49548283460099, 23.19939594322743]}}, {"type": "Feature", "properties": {"norad_id": 31540, "name": "FENGYUN 1C DEB", "group": "fengyun-1c-debris", "lat": 24.336913526825402, "lon": 158.34211608299503, "alt_km": 751.9895938248046, "timestamp": "2025-12-27T12:55:14.788590+00:00", "meta": {"OBJECT_NAME": "FENGYUN 1C DEB", "OBJECT_ID": "1999-025BYF", "EPOCH": "2025-12-26T17:08:38.917248", "MEAN_MOTION": 14.6555582, "ECCENTRICITY": 0.01764622, "INCLINATION": 99.0583, "RA_OF_ASC_NODE": 161.5719, "ARG_OF_PERICENTER": 258.0689, "MEAN_ANOMALY": 100.068, "EPHEMERIS_TYPE": 0, "CLASSIFICATION_TYPE": "U", "NORAD_CAT_ID": 31540, "ELEMENT_SET_NO": 999, "REV_AT_EPOCH": 98506, "BSTAR": 0.0011355097, "MEAN_MOTION_DOT": 7.696e-05, "MEAN_MOTION_DDOT": 0}, "tle": {"line1": "1 31540U 99025BYF 25360.71433932  .00007696  00000+0  11355-2 0  9990", "line2": "2 31540  99.0583 161.5719 0176462 258.0689 100.0680 14.65555820985067"}}, "geometry": {"type": "Point", "coordinates": [158.34211608299503, 24.336913526825402]}}, {"type": "Feature", "properties": {"norad_id": 31541, "name": "FENGYUN 1C DEB", "group": "fengyun-1c-debris", "lat": 48.89200268740354, "lon": -24.16322476964711, "alt_km": 635.2494504835986, "timestamp": "2025-12-27T12:55:14.788600+00:00", "meta": {"OBJECT_NAME": "FENGYUN 1C DEB", "OBJECT_ID": "1999-025BYG", "EPOCH": "2025-12-26T15:04:29.211168", "MEAN_MOTION": 14.69057428, "ECCENTRICITY": 0.0078407, "INCLINATION": 98.9803, "RA_OF_ASC_NODE": 144.3961, "ARG_OF_PERICENTER": 197.2814, "MEAN_ANOMALY": 162.5717, "EPHEMERIS_TYPE": 0, "CLASSIFICATION_TYPE": "U", "NORAD_CAT_ID": 31541, "ELEMENT_SET_NO": 999, "REV_AT_EPOCH": 98627, "BSTAR": 0.0016412, "MEAN_MOTION_DOT": 0.00010046, "MEAN_MOTION_DDOT": 0}, "tle": {"line1": "1 31541U 99025BYG 25360.62811587  .00010046  00000+0  16412-2 0  9999", "line2": "2 31541  98.9803 144.3961 0078407 197.2814 162.5717 14.69057428986276"}}, "geometry": {"type": "Point", "coordinates": [-24.16322476964711, 48.89200268740354]}}, {"type": "Feature", "properties": {"norad_id": 31542, "name": "FENGYUN 1C DEB", "group": "fengyun-1c-debris", "lat": 69.0074133532796, "lon": 31.80726348748895, "alt_km": 811.3332799576692, "timestamp": "2025-12-27T12:55:14.788611+00:00", "meta": {"OBJECT_NAME": "FENGYUN 1C DEB", "OBJECT_ID": "1999-025BYH", "EPOCH": "2025-12-26T21:23:52.804032", "MEAN_MOTION": 14.22874035, "ECCENTRICITY": 0.0047919, "INCLINATION": 98.7303, "RA_OF_ASC_NODE": 54.7729, "ARG_OF_PERICENTER": 167.054, "MEAN_ANOMALY": 193.1881, "EPHEMERIS_TYPE": 0, "CLASSIFICATION_TYPE": "U", "NORAD_CAT_ID": 31542, "ELEMENT_SET_NO": 999, "REV_AT_EPOCH": 96141, "BSTAR": 0.00143, "MEAN_MOTION_DOT": 3.208e-05, "MEAN_MOTION_DDOT": 0}, "tle": {"line1": "1 31542U 99025BYH 25360.89158338  .00003208  00000+0  14300-2 0  9993", "line2": "2 31542  98.7303  54.7729 0047919 167.0540 193.1881 14.22874035961412"}}, "geometry": {"type": "Point", "coordinates": [31.80726348748895, 69.0074133532796]}}, {"type": "Feature", "properties": {"norad_id": 31544, "name": "FENGYUN 1C DEB", "group": "fengyun-1c-debris", "lat": 68.72306412278749, "lon": 29.109324297424546, "alt_km": 859.1271587171186, "timestamp": "2025-12-27T12:55:14.788621+00:00", "meta": {"OBJECT_NAME": "FENGYUN 1C DEB", "OBJECT_ID": "1999-025BYK", "EPOCH": "2025-12-27T02:23:58.122528", "MEAN_MOTION": 14.14374014, "ECCENTRICITY": 0.00324821, "INCLINATION": 98.8279, "RA_OF_ASC_NODE": 52.1961, "ARG_OF_PERICENTER": 227.7111, "MEAN_ANOMALY": 132.1307, "EPHEMERIS_TYPE": 0, "CLASSIFICATION_TYPE": "U", "NORAD_CAT_ID": 31544, "ELEMENT_SET_NO": 999, "REV_AT_EPOCH": 95960, "BSTAR": 0.00078526359, "MEAN_MOTION_DOT": 1.466e-05, "MEAN_MOTION_DDOT": 0}, "tle": {"line1": "1 31544U 99025BYK 25361.09997827  .00001466  00000+0  78526-3 0  9997", "line2": "2 31544  98.8279  52.1961 0032482 227.7111 132.1307 14.14374014959601"}}, "geometry": {"type": "Point", "coordinates": [29.109324297424546, 68.72306412278749]}}, {"type": "Feature", "properties": {"norad_id": 31546, "name": "FENGYUN 1C DEB", "group": "fengyun-1c-debris", "lat": 5.988909180776416, "lon": -109.2361772325729, "alt_km": 829.5913534805914, "timestamp": "2025-12-27T12:55:14.788631+00:00", "meta": {"OBJECT_NAME": "FENGYUN 1C DEB", "OBJECT_ID": "1999-025BYM", "EPOCH": "2025-12-26T22:31:21.660096", "MEAN_MOTION": 14.13220675, "ECCENTRICITY": 0.014533, "INCLINATION": 98.243, "RA_OF_ASC_NODE": 69.3395, "ARG_OF_PERICENTER": 96.2085, "MEAN_ANOMALY": 265.5667, "EPHEMERIS_TYPE": 0, "CLASSIFICATION_TYPE": "U", "NORAD_CAT_ID": 31546, "ELEMENT_SET_NO": 999, "REV_AT_EPOCH": 94989, "BSTAR": 0.0016567, "MEAN_MOTION_DOT": 3.394e-05, "MEAN_MOTION_DDOT": 0}, "tle": {"line1": "1 31546U 99025BYM 25360.93844514  .00003394  00000+0  16567-2 0  9993", "line2": "2 31546  98.2430  69.3395 0145330  96.2085 265.5667 14.13220675949895"}}, "geometry": {"type": "Point", "coordinates": [-109.2361772325729, 5.988909180776416]}}, {"type": "Feature", "properties": {"norad_id": 31547, "name": "FENGYUN 1C DEB", "group": "fengyun-1c-debris", "lat": 63.50206780502583, "lon": -115.4988857021446, "alt_km": 812.016698637719, "timestamp": "2025-12-27T12:55:14.788642+00:00", "meta": {"OBJECT_NAME": "FENGYUN 1C DEB", "OBJECT_ID": "1999-025BYN", "EPOCH": "2025-12-23T20:38:21.518592", "MEAN_MOTION": 14.23194387, "ECCENTRICITY": 0.0054564, "INCLINATION": 99.0859, "RA_OF_ASC_NODE": 41.9836, "ARG_OF_PERICENTER": 221.2814, "MEAN_ANOMALY": 138.4231, "EPHEMERIS_TYPE": 0, "CLASSIFICATION_TYPE": "U", "NORAD_CAT_ID": 31547, "ELEMENT_SET_NO": 999, "REV_AT_EPOCH": 64175, "BSTAR": 0.0013187, "MEAN_MOTION_DOT": 2.981e-05, "MEAN_MOTION_DDOT": 0}, "tle": {"line1": "1 31547U 99025BYN 25357.85997128  .00002981  00000+0  13187-2 0  9997", "line2": "2 31547  99.0859  41.9836 0054564 221.2814 138.4231 14.23194387641754"}}, "geometry": {"type": "Point", "coordinates": [-115.4988857021446, 63.50206780502583]}}, {"type": "Feature", "properties": {"norad_id": 31550, "name": "FENGYUN 1C DEB", "group": "fengyun-1c-debris", "lat": 61.254300102516034, "lon": -163.96235332078587, "alt_km": 796.6237907963796, "timestamp": "2025-12-27T12:55:14.788652+00:00", "meta": {"OBJECT_NAME": "FENGYUN 1C DEB", "OBJECT_ID": "1999-025BYR", "EPOCH": "2025-12-27T05:41:25.575648", "MEAN_MOTION": 14.40283617, "ECCENTRICITY": 0.01901676, "INCLINATION": 98.3123, "RA_OF_ASC_NODE": 0.2869, "ARG_OF_PERICENTER": 228.8785, "MEAN_ANOMALY": 129.5854, "EPHEMERIS_TYPE": 0, "CLASSIFICATION_TYPE": "U", "NORAD_CAT_ID": 31550, "ELEMENT_SET_NO": 999, "REV_AT_EPOCH": 65663, "BSTAR": 0.00067378804, "MEAN_MOTION_DOT": 2.593e-05, "MEAN_MOTION_DDOT": 0}, "tle": {"line1": "1 31550U 99025BYR 25361.23710157  .00002593  00000+0  67379-3 0  9995", "line2": "2 31550  98.3123   0.2869 0190167 228.8785 129.5854 14.40283617656637"}}, "geometry": {"type": "Point", "coordinates": [-163.96235332078587, 61.254300102516034]}}, {"type": "Feature", "properties": {"norad_id": 31552, "name": "FENGYUN 1C DEB", "group": "fengyun-1c-debris", "lat": 28.52405966898744, "lon": 118.90617112764212, "alt_km": 701.157110558388, "timestamp": "2025-12-27T12:55:14.788686+00:00", "meta": {"OBJECT_NAME": "FENGYUN 1C DEB", "OBJECT_ID": "1999-025BYT", "EPOCH": "2025-12-24T01:44:59.859456", "MEAN_MOTION": 14.45885518, "ECCENTRICITY": 0.00856283, "INCLINATION": 98.6213, "RA_OF_ASC_NODE": 120.1143, "ARG_OF_PERICENTER": 345.73, "MEAN_ANOMALY": 14.1474, "EPHEMERIS_TYPE": 0, "CLASSIFICATION_TYPE": "U", "NORAD_CAT_ID": 31552, "ELEMENT_SET_NO": 999, "REV_AT_EPOCH": 96040, "BSTAR": 0.0027047524, "MEAN_MOTION_DOT": 0.00010022, "MEAN_MOTION_DDOT": 0}, "tle": {"line1": "1 31552U 99025BYT 25358.07291504  .00010022  00000+0  27048-2 0  9999", "line2": "2 31552  98.6213 120.1143 0085628 345.7300  14.1474 14.45885518960409"}}, "geometry": {"type": "Point", "coordinates": [118.90617112764212, 28.52405966898744]}}]}